ONEWEB-0350             
1 49214U 21083AE  24220.68219149 -.00000247  00000+0 -71013-3 0  9993
2 49214  87.8894  95.2625 0001899  91.3023 268.8324 13.13472495141862
ONEWEB-0351             
1 49215U 21083AF  24220.47833754  .00000109  00000+0  23514-3 0  9993
2 49215  87.9179  49.4572 0000853  97.9306 262.1924 13.20773416147186
ONEWEB-0352             
1 49216U 21083AG  24220.66314840  .00000103  00000+0  24610-3 0  9997
2 49216  87.8898  95.2988 0001275  85.0181 275.1094 13.13467946141953
ONEWEB-0354             
1 49217U 21083AH  24220.50372211  .00000038  00000+0  62379-4 0  9999
2 49217  87.9182  49.4390 0001853  99.3479 260.7864 13.20773666147227
ONEWEB-0355             
1 49218U 21083AJ  24220.69330532 -.00000159  00000+0 -47072-3 0  9998
2 49218  87.8896  95.2919 0001684  81.7918 278.3402 13.13469984141831
ONEWEB-0357             
1 49219U 21083AK  24220.50056623  .00000031  00000+0  45187-4 0  9998
2 49219  87.9180  49.4562 0001606  92.3605 267.7712 13.20773924147224
ONEWEB-0332             
1 49279U 21090A   24220.55244916  .00000209  00000+0  52980-3 0  9996
2 49279  87.8921  64.7125 0001586  75.4003 284.7302 13.14505700138422
ONEWEB-0347             
1 49280U 21090B   24220.49111513  .00000101  00000+0  21750-3 0  9999
2 49280  87.9182  49.4584 0001665  72.2224 287.9091 13.20771689141456
